{
 "generated_at": "2026-07-04T07:46:40Z",
 "sources": [
  {
   "name": "CelesTrak",
   "url": "https://celestrak.org/NORAD/elements/",
   "license": "frei verfügbar; Attribution. Ursprünglich USSPACECOM/Space-Track."
  },
  {
   "name": "GCAT (J. McDowell, planet4589.org)",
   "url": "https://planet4589.org/space/gcat/",
   "license": "CC-BY 4.0"
  }
 ],
 "satellites": [
  {
   "norad": 36036,
   "name": "SMOS",
   "intl": "2009-059A",
   "group": "resource",
   "gcat": {
    "class": "C",
    "category": "EOSCI",
    "owner": "ESA",
    "state": "I-ESA"
   },
   "omm": {
    "OBJECT_NAME": "SMOS",
    "OBJECT_ID": "2009-059A",
    "EPOCH": "2026-07-02T18:09:21.849696",
    "MEAN_MOTION": 14.39781159,
    "ECCENTRICITY": 0.00013056,
    "INCLINATION": 98.4426,
    "RA_OF_ASC_NODE": 10.8633,
    "ARG_OF_PERICENTER": 87.1942,
    "MEAN_ANOMALY": 272.9395,
    "EPHEMERIS_TYPE": 0,
    "CLASSIFICATION_TYPE": "U",
    "NORAD_CAT_ID": 36036,
    "ELEMENT_SET_NO": 999,
    "REV_AT_EPOCH": 87569,
    "BSTAR": 0.00010644789,
    "MEAN_MOTION_DOT": 0.0000029,
    "MEAN_MOTION_DDOT": 0
   }
  },
  {
   "norad": 38755,
   "name": "SPOT 6",
   "intl": "2012-047A",
   "group": "resource",
   "gcat": {
    "class": "B",
    "category": "IMG",
    "owner": "SPOT",
    "state": "F"
   },
   "omm": {
    "OBJECT_NAME": "SPOT 6",
    "OBJECT_ID": "2012-047A",
    "EPOCH": "2026-07-03T15:53:46.553568",
    "MEAN_MOTION": 14.5853342,
    "ECCENTRICITY": 0.00012458,
    "INCLINATION": 98.2114,
    "RA_OF_ASC_NODE": 251.7784,
    "ARG_OF_PERICENTER": 77.1859,
    "MEAN_ANOMALY": 282.948,
    "EPHEMERIS_TYPE": 0,
    "CLASSIFICATION_TYPE": "U",
    "NORAD_CAT_ID": 38755,
    "ELEMENT_SET_NO": 999,
    "REV_AT_EPOCH": 73545,
    "BSTAR": 0.00013040132,
    "MEAN_MOTION_DOT": 0.0000056,
    "MEAN_MOTION_DDOT": 0
   }
  },
  {
   "norad": 40053,
   "name": "SPOT 7",
   "intl": "2014-034A",
   "group": "resource",
   "gcat": {
    "class": null,
    "category": null,
    "owner": null,
    "state": null
   },
   "omm": {
    "OBJECT_NAME": "SPOT 7",
    "OBJECT_ID": "2014-034A",
    "EPOCH": "2026-07-03T16:29:47.739840",
    "MEAN_MOTION": 14.60973592,
    "ECCENTRICITY": 0.00014538,
    "INCLINATION": 98.0621,
    "RA_OF_ASC_NODE": 246.7538,
    "ARG_OF_PERICENTER": 95.0954,
    "MEAN_ANOMALY": 265.0413,
    "EPHEMERIS_TYPE": 0,
    "CLASSIFICATION_TYPE": "U",
    "NORAD_CAT_ID": 40053,
    "ELEMENT_SET_NO": 999,
    "REV_AT_EPOCH": 63954,
    "BSTAR": 0.00014763818,
    "MEAN_MOTION_DOT": 0.00000678,
    "MEAN_MOTION_DDOT": 0
   }
  },
  {
   "norad": 37841,
   "name": "SRMSAT",
   "intl": "2011-058D",
   "group": "resource",
   "gcat": {
    "class": "A",
    "category": "TECH",
    "owner": "SRMU",
    "state": "IN"
   },
   "omm": {
    "OBJECT_NAME": "SRMSAT",
    "OBJECT_ID": "2011-058D",
    "EPOCH": "2026-07-02T13:30:11.390112",
    "MEAN_MOTION": 14.11578853,
    "ECCENTRICITY": 0.0011821,
    "INCLINATION": 19.9731,
    "RA_OF_ASC_NODE": 326.4081,
    "ARG_OF_PERICENTER": 13.5504,
    "MEAN_ANOMALY": 59.6043,
    "EPHEMERIS_TYPE": 0,
    "CLASSIFICATION_TYPE": "U",
    "NORAD_CAT_ID": 37841,
    "ELEMENT_SET_NO": 999,
    "REV_AT_EPOCH": 75999,
    "BSTAR": 0.000072828,
    "MEAN_MOTION_DOT": 0.00000399,
    "MEAN_MOTION_DDOT": 0
   }
  },
  {
   "norad": 53815,
   "name": "STRIX-1",
   "intl": "2022-113A",
   "group": "sar",
   "gcat": {
    "class": "B",
    "category": "IMG-R",
    "owner": "SYNSP",
    "state": "J"
   },
   "omm": {
    "OBJECT_NAME": "STRIX-1",
    "OBJECT_ID": "2022-113A",
    "EPOCH": "2026-07-03T16:29:16.953792",
    "MEAN_MOTION": 15.40547137,
    "ECCENTRICITY": 0.00049375,
    "INCLINATION": 97.4481,
    "RA_OF_ASC_NODE": 247.0121,
    "ARG_OF_PERICENTER": 162.3931,
    "MEAN_ANOMALY": 197.7488,
    "EPHEMERIS_TYPE": 0,
    "CLASSIFICATION_TYPE": "U",
    "NORAD_CAT_ID": 53815,
    "ELEMENT_SET_NO": 999,
    "REV_AT_EPOCH": 20998,
    "BSTAR": 0.0008246446,
    "MEAN_MOTION_DOT": 0.00033529,
    "MEAN_MOTION_DDOT": 0
   }
  },
  {
   "norad": 62406,
   "name": "STRIX-2",
   "intl": "2024-248A",
   "group": "sar",
   "gcat": {
    "class": "B",
    "category": "IMG-R",
    "owner": "SYNSP",
    "state": "J"
   },
   "omm": {
    "OBJECT_NAME": "STRIX-2",
    "OBJECT_ID": "2024-248A",
    "EPOCH": "2026-07-03T15:37:19.793856",
    "MEAN_MOTION": 15.0908807,
    "ECCENTRICITY": 0.00135585,
    "INCLINATION": 97.6296,
    "RA_OF_ASC_NODE": 140.1975,
    "ARG_OF_PERICENTER": 280.7159,
    "MEAN_ANOMALY": 79.2543,
    "EPHEMERIS_TYPE": 0,
    "CLASSIFICATION_TYPE": "U",
    "NORAD_CAT_ID": 62406,
    "ELEMENT_SET_NO": 999,
    "REV_AT_EPOCH": 8407,
    "BSTAR": 0.00037972993,
    "MEAN_MOTION_DOT": 0.00005966,
    "MEAN_MOTION_DDOT": 0
   }
  },
  {
   "norad": 59224,
   "name": "STRIX-3",
   "intl": "2024-047A",
   "group": "sar",
   "gcat": {
    "class": "B",
    "category": "IMG-R",
    "owner": "SYNSP",
    "state": "J"
   },
   "omm": {
    "OBJECT_NAME": "STRIX-3",
    "OBJECT_ID": "2024-047A",
    "EPOCH": "2026-07-03T15:23:51.521856",
    "MEAN_MOTION": 15.19650513,
    "ECCENTRICITY": 0.00134678,
    "INCLINATION": 97.6631,
    "RA_OF_ASC_NODE": 160.5623,
    "ARG_OF_PERICENTER": 15.3671,
    "MEAN_ANOMALY": 344.7969,
    "EPHEMERIS_TYPE": 0,
    "CLASSIFICATION_TYPE": "U",
    "NORAD_CAT_ID": 59224,
    "ELEMENT_SET_NO": 999,
    "REV_AT_EPOCH": 12724,
    "BSTAR": 0.00044938321,
    "MEAN_MOTION_DOT": 0.00009537,
    "MEAN_MOTION_DDOT": 0
   }
  },
  {
   "norad": 60352,
   "name": "STRIX-4",
   "intl": "2024-137A",
   "group": "sar",
   "gcat": {
    "class": "B",
    "category": "IMG-R",
    "owner": "SYNSP",
    "state": "J"
   },
   "omm": {
    "OBJECT_NAME": "STRIX-4",
    "OBJECT_ID": "2024-137A",
    "EPOCH": "2026-07-03T10:41:13.761888",
    "MEAN_MOTION": 15.33036805,
    "ECCENTRICITY": 0.00162498,
    "INCLINATION": 43.0133,
    "RA_OF_ASC_NODE": 192.4777,
    "ARG_OF_PERICENTER": 48.4914,
    "MEAN_ANOMALY": 311.7332,
    "EPHEMERIS_TYPE": 0,
    "CLASSIFICATION_TYPE": "U",
    "NORAD_CAT_ID": 60352,
    "ELEMENT_SET_NO": 999,
    "REV_AT_EPOCH": 10651,
    "BSTAR": 0.00055813514,
    "MEAN_MOTION_DOT": 0.00018026,
    "MEAN_MOTION_DDOT": 0
   }
  },
  {
   "norad": 65971,
   "name": "STRIX-5",
   "intl": "2025-229A",
   "group": "sar",
   "gcat": {
    "class": "B",
    "category": "IMG-R",
    "owner": "SYNSP",
    "state": "J"
   },
   "omm": {
    "OBJECT_NAME": "STRIX-5",
    "OBJECT_ID": "2025-229A",
    "EPOCH": "2026-07-02T18:29:10.273920",
    "MEAN_MOTION": 15.04526851,
    "ECCENTRICITY": 0.003626,
    "INCLINATION": 41.926,
    "RA_OF_ASC_NODE": 200.9797,
    "ARG_OF_PERICENTER": 156.7323,
    "MEAN_ANOMALY": 203.5153,
    "EPHEMERIS_TYPE": 0,
    "CLASSIFICATION_TYPE": "U",
    "NORAD_CAT_ID": 65971,
    "ELEMENT_SET_NO": 999,
    "REV_AT_EPOCH": 3932,
    "BSTAR": 0.00025082157,
    "MEAN_MOTION_DOT": 0.0000343,
    "MEAN_MOTION_DDOT": 0
   }
  },
  {
   "norad": 68291,
   "name": "STRIX-6",
   "intl": "2026-056A",
   "group": "sar",
   "gcat": {
    "class": "B",
    "category": "IMG-R",
    "owner": "SYNSP",
    "state": "J"
   },
   "omm": {
    "OBJECT_NAME": "STRIX-6",
    "OBJECT_ID": "2026-056A",
    "EPOCH": "2026-07-02T10:44:35.422080",
    "MEAN_MOTION": 15.00271864,
    "ECCENTRICITY": 0.0016524,
    "INCLINATION": 50.2835,
    "RA_OF_ASC_NODE": 277.6543,
    "ARG_OF_PERICENTER": 302.3341,
    "MEAN_ANOMALY": 57.6008,
    "EPHEMERIS_TYPE": 0,
    "CLASSIFICATION_TYPE": "U",
    "NORAD_CAT_ID": 68291,
    "ELEMENT_SET_NO": 999,
    "REV_AT_EPOCH": 1556,
    "BSTAR": 0.00035193,
    "MEAN_MOTION_DOT": 0.00004207,
    "MEAN_MOTION_DDOT": 0
   }
  }
 ]
}
