SMOS                    
1 36036U 09059A   26183.75650289  .00000290  00000+0  10645-3 0  9992
2 36036  98.4426  10.8633 0001305  87.1942 272.9395 14.39781159875694
SRMSAT                  
1 37841U 11058D   26183.56263183  .00000399  00000+0  72828-4 0  9993
2 37841  19.9731 326.4081 0011821  13.5504  59.6043 14.11578853759999
SPOT 6                  
1 38755U 12047A   26184.66234437  .00000560  00000+0  13040-3 0  9999
2 38755  98.2114 251.7784 0001245  77.1859 282.9480 14.58533420735450
SPOT 7                  
1 40053U 14034A   26184.68735810  .00000678  00000+0  14764-3 0  9998
2 40053  98.0621 246.7538 0001453  95.0954 265.0413 14.60973592639544
STRIX-1                 
1 53815U 22113A   26184.68700178  .00033529  00000+0  82464-3 0  9997
2 53815  97.4481 247.0121 0004937 162.3931 197.7488 15.40547137209981
STRIX-3                 
1 59224U 24047A   26184.64156854  .00009537  00000+0  44938-3 0  9993
2 59224  97.6631 160.5623 0013467  15.3671 344.7969 15.19650513127247
STRIX-4                 
1 60352U 24137A   26184.44529817  .00018026  00000+0  55814-3 0  9996
2 60352  43.0133 192.4777 0016249  48.4914 311.7332 15.33036805106518
STRIX-2                 
1 62406U 24248A   26184.65092354  .00005966  00000+0  37973-3 0  9990
2 62406  97.6296 140.1975 0013558 280.7159  79.2543 15.09088070 84077
STRIX-5                 
1 65971U 25229A   26183.77025780  .00003430  00000+0  25082-3 0  9993
2 65971  41.9260 200.9797 0036260 156.7323 203.5153 15.04526851 39323
STRIX-6                 
1 68291U 26056A   26183.44763220  .00004207  00000+0  35193-3 0  9999
2 68291  50.2835 277.6543 0016524 302.3341  57.6008 15.00271864 15566
